[{"OBJECT_NAME":"STARLINK-2711","OBJECT_ID":"2021-044AM","EPOCH":"2026-03-09T08:27:33.726816","MEAN_MOTION":15.06405007,"ECCENTRICITY":0.00013024,"INCLINATION":53.053,"RA_OF_ASC_NODE":113.1306,"ARG_OF_PERICENTER":86.1414,"MEAN_ANOMALY":273.9724,"EPHEMERIS_TYPE":0,"CLASSIFICATION_TYPE":"U","NORAD_CAT_ID":48673,"ELEMENT_SET_NO":999,"REV_AT_EPOCH":26379,"BSTAR":4.3637786e-5,"MEAN_MOTION_DOT":3.69e-6,"MEAN_MOTION_DDOT":0},{"OBJECT_NAME":"FENGYUN 1C DEB","OBJECT_ID":"1999-025CMN","EPOCH":"2026-03-08T02:55:26.099904","MEAN_MOTION":14.79998797,"ECCENTRICITY":0.01585695,"INCLINATION":99.2491,"RA_OF_ASC_NODE":174.5116,"ARG_OF_PERICENTER":31.4432,"MEAN_ANOMALY":329.6136,"EPHEMERIS_TYPE":0,"CLASSIFICATION_TYPE":"U","NORAD_CAT_ID":31937,"ELEMENT_SET_NO":999,"REV_AT_EPOCH":67331,"BSTAR":0.0010230441,"MEAN_MOTION_DOT":9.525e-5,"MEAN_MOTION_DDOT":0}]
